{
  "type": "FeatureCollection",
  "features": [
    {
      "type": "Feature",
      "properties": {
        "norad_id": 33844,
        "name": "COSMOS 2251 DEB",
        "group": "cosmos-2251-debris",
        "lat": -73.72343276391462,
        "lon": -46.36451328496285,
        "alt_km": 819.6279015321661,
        "timestamp": "2025-12-11T05:00:26.701228+00:00",
        "meta_object_name": "COSMOS 2251 DEB",
        "meta_object_id": "1993-036CM",
        "meta_epoch": "2025-12-10T15:09:35.627040",
        "meta_mean_motion": 14.33709266,
        "meta_eccentricity": 0.0047069,
        "meta_inclination": 74.0672,
        "meta_ra_of_asc_node": 56.6273,
        "meta_arg_of_pericenter": 79.2503,
        "meta_mean_anomaly": 90.6977,
        "meta_ephemeris_type": 0,
        "meta_classification_type": "U",
        "meta_norad_cat_id": 33844,
        "meta_element_set_no": 999,
        "meta_rev_at_epoch": 87695,
        "meta_bstar": 0.00057914,
        "meta_mean_motion_dot": 1.602e-05,
        "meta_mean_motion_ddot": 0,
        "tle_line1": "1 33844U 93036CM  25344.63166235  .00001602  00000+0  57914-3 0  9990",
        "tle_line2": "2 33844  74.0672  56.6273 0047069  79.2503  90.6977 14.33709266876955"
      },
      "geometry": {
        "type": "Point",
        "coordinates": [
          -46.36451328496285,
          -73.72343276391462
        ]
      }
    },
    {
      "type": "Feature",
      "properties": {
        "norad_id": 33848,
        "name": "COSMOS 2251 DEB",
        "group": "cosmos-2251-debris",
        "lat": 27.53379582421186,
        "lon": 9.07646447968925,
        "alt_km": 717.8545992833251,
        "timestamp": "2025-12-11T05:00:26.701238+00:00",
        "meta_object_name": "COSMOS 2251 DEB",
        "meta_object_id": "1993-036CR",
        "meta_epoch": "2025-12-10T12:47:57.598656",
        "meta_mean_motion": 14.44036765,
        "meta_eccentricity": 0.00410337,
        "meta_inclination": 74.0323,
        "meta_ra_of_asc_node": 1.748,
        "meta_arg_of_pericenter": 58.3401,
        "meta_mean_anomaly": 61.3715,
        "meta_ephemeris_type": 0,
        "meta_classification_type": "U",
        "meta_norad_cat_id": 33848,
        "meta_element_set_no": 999,
        "meta_rev_at_epoch": 87799,
        "meta_bstar": 0.00145922,
        "meta_mean_motion_dot": 5.02e-05,
        "meta_mean_motion_ddot": 0,
        "tle_line1": "1 33848U 93036CR  25344.53330554  .00005020  00000+0  14592-2 0  9992",
        "tle_line2": "2 33848  74.0323   1.7480 0041033  58.3401  61.3715 14.44036765877992"
      },
      "geometry": {
        "type": "Point",
        "coordinates": [
          9.07646447968925,
          27.53379582421186
        ]
      }
    },
    {
      "type": "Feature",
      "properties": {
        "norad_id": 33892,
        "name": "COSMOS 2251 DEB",
        "group": "cosmos-2251-debris",
        "lat": 61.44199033854002,
        "lon": 137.1295738374428,
        "alt_km": 779.4017316656755,
        "timestamp": "2025-12-11T05:00:26.701248+00:00",
        "meta_object_name": "COSMOS 2251 DEB",
        "meta_object_id": "1993-036CV",
        "meta_epoch": "2025-12-10T19:17:11.840928",
        "meta_mean_motion": 14.2332678,
        "meta_eccentricity": 0.0112983,
        "meta_inclination": 73.8029,
        "meta_ra_of_asc_node": 105.5897,
        "meta_arg_of_pericenter": 137.1931,
        "meta_mean_anomaly": 15.653,
        "meta_ephemeris_type": 0,
        "meta_classification_type": "U",
        "meta_norad_cat_id": 33892,
        "meta_element_set_no": 999,
        "meta_rev_at_epoch": 86927,
        "meta_bstar": 0.0014084819,
        "meta_mean_motion_dot": 3.384e-05,
        "meta_mean_motion_ddot": 0,
        "tle_line1": "1 33892U 93036CV  25344.80360927  .00003384  00000+0  14085-2 0  9996",
        "tle_line2": "2 33892  73.8029 105.5897 0112983 137.1931  15.6530 14.23326780869278"
      },
      "geometry": {
        "type": "Point",
        "coordinates": [
          137.1295738374428,
          61.44199033854002
        ]
      }
    },
    {
      "type": "Feature",
      "properties": {
        "norad_id": 33894,
        "name": "COSMOS 2251 DEB",
        "group": "cosmos-2251-debris",
        "lat": 5.742909913559332,
        "lon": 169.77122045967923,
        "alt_km": 1210.6947279757505,
        "timestamp": "2025-12-11T05:00:26.701259+00:00",
        "meta_object_name": "COSMOS 2251 DEB",
        "meta_object_id": "1993-036CX",
        "meta_epoch": "2025-12-10T09:53:34.344384",
        "meta_mean_motion": 13.21291584,
        "meta_eccentricity": 0.05796026,
        "meta_inclination": 73.7673,
        "meta_ra_of_asc_node": 352.6817,
        "meta_arg_of_pericenter": 272.3894,
        "meta_mean_anomaly": 81.099,
        "meta_ephemeris_type": 0,
        "meta_classification_type": "U",
        "meta_norad_cat_id": 33894,
        "meta_element_set_no": 999,
        "meta_rev_at_epoch": 80677,
        "meta_bstar": 0.0026236672,
        "meta_mean_motion_dot": 2.591e-05,
        "meta_mean_motion_ddot": 0,
        "tle_line1": "1 33894U 93036CX  25344.41220306  .00002591  00000+0  26237-2 0  9992",
        "tle_line2": "2 33894  73.7673 352.6817 0579602 272.3894  81.0990 13.21291584806779"
      },
      "geometry": {
        "type": "Point",
        "coordinates": [
          169.77122045967923,
          5.742909913559332
        ]
      }
    },
    {
      "type": "Feature",
      "properties": {
        "norad_id": 33896,
        "name": "COSMOS 2251 DEB",
        "group": "cosmos-2251-debris",
        "lat": 19.01954255972605,
        "lon": -26.301194561066836,
        "alt_km": 919.2078435092317,
        "timestamp": "2025-12-11T05:00:26.701269+00:00",
        "meta_object_name": "COSMOS 2251 DEB",
        "meta_object_id": "1993-036CZ",
        "meta_epoch": "2025-12-10T22:12:12.398400",
        "meta_mean_motion": 14.1903048,
        "meta_eccentricity": 0.0126349,
        "meta_inclination": 73.7663,
        "meta_ra_of_asc_node": 159.9773,
        "meta_arg_of_pericenter": 335.9788,
        "meta_mean_anomaly": 176.4978,
        "meta_ephemeris_type": 0,
        "meta_classification_type": "U",
        "meta_norad_cat_id": 33896,
        "meta_element_set_no": 999,
        "meta_rev_at_epoch": 86714,
        "meta_bstar": 0.0009227065,
        "meta_mean_motion_dot": 2.059e-05,
        "meta_mean_motion_ddot": 0,
        "tle_line1": "1 33896U 93036CZ  25344.92514350  .00002059  00000+0  92271-3 0  9996",
        "tle_line2": "2 33896  73.7663 159.9773 0126349 335.9788 176.4978 14.19030480867140"
      },
      "geometry": {
        "type": "Point",
        "coordinates": [
          -26.301194561066836,
          19.01954255972605
        ]
      }
    },
    {
      "type": "Feature",
      "properties": {
        "norad_id": 33899,
        "name": "COSMOS 2251 DEB",
        "group": "cosmos-2251-debris",
        "lat": -49.279600038002876,
        "lon": 69.25015692157162,
        "alt_km": 732.7576529500093,
        "timestamp": "2025-12-11T05:00:26.701279+00:00",
        "meta_object_name": "COSMOS 2251 DEB",
        "meta_object_id": "1993-036DC",
        "meta_epoch": "2025-12-10T09:50:14.987616",
        "meta_mean_motion": 14.61151402,
        "meta_eccentricity": 0.00569816,
        "meta_inclination": 74.0539,
        "meta_ra_of_asc_node": 90.1754,
        "meta_arg_of_pericenter": 153.566,
        "meta_mean_anomaly": 274.4113,
        "meta_ephemeris_type": 0,
        "meta_classification_type": "U",
        "meta_norad_cat_id": 33899,
        "meta_element_set_no": 999,
        "meta_rev_at_epoch": 88805,
        "meta_bstar": 0.0016978101,
        "meta_mean_motion_dot": 8.53e-05,
        "meta_mean_motion_ddot": 0,
        "tle_line1": "1 33899U 93036DC  25344.40989569  .00008530  00000+0  16978-2 0  9999",
        "tle_line2": "2 33899  74.0539  90.1754 0056981 153.5660 274.4113 14.61151402888059"
      },
      "geometry": {
        "type": "Point",
        "coordinates": [
          69.25015692157162,
          -49.279600038002876
        ]
      }
    },
    {
      "type": "Feature",
      "properties": {
        "norad_id": 33900,
        "name": "COSMOS 2251 DEB",
        "group": "cosmos-2251-debris",
        "lat": -1.4635908289194917,
        "lon": 2.3610688522104994,
        "alt_km": 731.8774063154842,
        "timestamp": "2025-12-11T05:00:26.701289+00:00",
        "meta_object_name": "COSMOS 2251 DEB",
        "meta_object_id": "1993-036DD",
        "meta_epoch": "2025-12-10T19:56:30.471936",
        "meta_mean_motion": 14.58336169,
        "meta_eccentricity": 0.00469489,
        "meta_inclination": 74.0194,
        "meta_ra_of_asc_node": 3.4999,
        "meta_arg_of_pericenter": 156.1589,
        "meta_mean_anomaly": 20.3518,
        "meta_ephemeris_type": 0,
        "meta_classification_type": "U",
        "meta_norad_cat_id": 33900,
        "meta_element_set_no": 999,
        "meta_rev_at_epoch": 89008,
        "meta_bstar": 0.00059430114,
        "meta_mean_motion_dot": 2.763e-05,
        "meta_mean_motion_ddot": 0,
        "tle_line1": "1 33900U 93036DD  25344.83090824  .00002763  00000+0  59430-3 0  9999",
        "tle_line2": "2 33900  74.0194   3.4999 0046948 156.1589  20.3518 14.58336169890082"
      },
      "geometry": {
        "type": "Point",
        "coordinates": [
          2.3610688522104994,
          -1.4635908289194917
        ]
      }
    }
  ]
}